[ {"name": "STARLINK-34531", "line1": "1 64750U 25144AC  26165.09725920  .00008336  00000+0  29331-3 0  9992", "line2": "2 64750  53.1597  93.1408 0001327  87.2102 272.9050 15.30194202 54474"}, {"name": "STARLINK-33965", "line1": "1 64755U 25147A   26165.23728080  .00036016  00000+0  10725-2 0  9998", "line2": "2 64755  53.1583 152.8849 0001451  90.0422 270.0747 15.34384302 53591"}, {"name": "STARLINK-34371", "line1": "1 64756U 25147B   26165.27246197  .00008515  00000+0  28594-3 0  9994", "line2": "2 64756  53.1569 153.8080 0001203  82.1251 277.9887 15.31687990 53497"}, {"name": "STARLINK-34401", "line1": "1 64757U 25147C   26165.26042530  .00027187  00000+0  81303-3 0  9992", "line2": "2 64757  53.1563 153.0236 0001114  71.8609 288.2515 15.34393832 53484"}, {"name": "STARLINK-34593", "line1": "1 64758U 25147D   26165.22675451  .00015109  00000+0  45784-3 0  9997", "line2": "2 64758  53.1580 152.8130 0001651  98.8900 261.2290 15.34368752 53555"}, {"name": "STARLINK-34598", "line1": "1 64759U 25147E   26165.28356666  .00012676  00000+0  38570-3 0  9999", "line2": "2 64759  53.1574 153.1623 0001105 104.0490 256.0636 15.34397588 53508"}, {"name": "STARLINK-34235", "line1": "1 64760U 25147F   26165.22053648  .00019705  00000+0  59303-3 0  9996", "line2": "2 64760  53.1588 153.4861 0001233  98.3895 261.7248 15.34388231 53583"}, {"name": "STARLINK-34635", "line1": "1 64761U 25147G   26165.27515186  .00018946  00000+0  57055-3 0  9990", "line2": "2 64761  53.1576 153.1158 0001152  85.0653 275.0481 15.34393956 53556"}, {"name": "STARLINK-34638", "line1": "1 64762U 25147H   26165.23938695  .00021523  00000+0  64648-3 0  9992", "line2": "2 64762  53.1582 152.8971 0001104  61.5005 298.6109 15.34392120 53550"}, {"name": "STARLINK-34534", "line1": "1 64763U 25147J   26165.26463262  .00029952  00000+0  89404-3 0  9990", "line2": "2 64763  53.1570 153.0466 0001243  83.2821 276.8323 15.34400943 53550"}, {"name": "STARLINK-34261", "line1": "1 64764U 25147K   26165.23307270  .00022099  00000+0  66364-3 0  9999", "line2": "2 64764  53.1592 152.8538 0001135  73.7228 286.3899 15.34381845 53594"}, {"name": "STARLINK-34566", "line1": "1 64765U 25147L   26165.24990634  .00032220  00000+0  96075-3 0  9992", "line2": "2 64765  53.1572 152.9560 0001313  87.9440 272.1713 15.34396815 53557"}, {"name": "STARLINK-34645", "line1": "1 64766U 25147M   26165.26915759  .00010690  00000+0  37247-3 0  9993", "line2": "2 64766  53.1566 154.4901 0001142  74.4710 285.6417 15.30206381 53530"}, {"name": "STARLINK-34639", "line1": "1 64767U 25147N   26165.25621615  .00010325  00000+0  31628-3 0  9990", "line2": "2 64767  53.1573 152.9939 0001055  97.3954 262.7169 15.34399574 53508"}, {"name": "STARLINK-34609", "line1": "1 64768U 25147P   26165.23547953  .00013241  00000+0  45838-3 0  9999", "line2": "2 64768  53.1564 144.3426 0001026  72.7341 287.3772 15.30199203 53674"}, {"name": "STARLINK-34246", "line1": "1 64769U 25147Q   26165.24361310  .00021907  00000+0  65780-3 0  9998", "line2": "2 64769  53.1585 152.9219 0001051  81.8543 278.2579 15.34390649 53558"}, {"name": "STARLINK-34618", "line1": "1 64770U 25147R   26165.22465977  .00020261  00000+0  60929-3 0  9994", "line2": "2 64770  53.1587 152.8007 0001642  86.3672 273.7519 15.34393849 53486"}, {"name": "STARLINK-34541", "line1": "1 64771U 25147S   26165.25002315  .00007503  00000+0  23320-3 0  9999", "line2": "2 64771  53.1572 152.8654 0001207  81.1079 326.0905 15.34369115  5881"}, {"name": "STARLINK-34652", "line1": "1 64772U 25147T   26165.24780146  .00018805  00000+0  56642-3 0  9994", "line2": "2 64772  53.1572 152.9413 0001174  83.9095 276.2041 15.34393288 53559"}, {"name": "STARLINK-34612", "line1": "1 64773U 25147U   26165.23518278  .00023569  00000+0  70596-3 0  9996", "line2": "2 64773  53.1593 152.8636 0001383  82.8921 277.2239 15.34424880 53550"}, {"name": "STARLINK-34621", "line1": "1 64774U 25147V   26165.26282925  .00016966  00000+0  58372-3 0  9998", "line2": "2 64774  53.1566 154.4494 0001127  81.3400 278.7728 15.30194510 53462"}, {"name": "STARLINK-34657", "line1": "1 64775U 25147W   26165.25832111  .00021276  00000+0  63912-3 0  9992", "line2": "2 64775  53.1566 153.0039 0001087  67.1056 293.0061 15.34395999 53555"}, {"name": "STARLINK-34637", "line1": "1 64776U 25147X   26165.20581852  .00031581  00000+0  94148-3 0  9996", "line2": "2 64776  53.1583 153.3882 0001596  86.9962 273.1223 15.34413493 53474"}, {"name": "STARLINK-34547", "line1": "1 64777U 25147Y   26165.23097104  .00027168  00000+0  81240-3 0  9997", "line2": "2 64777  53.1590 152.8366 0001479  85.9899 274.1272 15.34395876 53493"}, {"name": "STARLINK-34537", "line1": "1 64778U 25147Z   26165.18644925  .00016824  00000+0  57884-3 0  9995", "line2": "2 64778  53.1581 131.6527 0001371  86.4366 273.6792 15.30201449 53875"}, {"name": "STARLINK-34585", "line1": "1 64779U 25147AA  26165.26883965  .00024614  00000+0  73732-3 0  9990", "line2": "2 64779  53.1576 153.0688 0001257  80.4363 279.6782 15.34396220 53501"}, {"name": "STARLINK-34491", "line1": "1 64780U 25147AB  26165.22886622  .00023013  00000+0  69027-3 0  9995", "line2": "2 64780  53.1583 152.8201 0001291  82.6005 277.5144 15.34394085 53555"}, {"name": "STARLINK-34582", "line1": "1 64781U 25147AC  26165.28769184  .00020760  00000+0  62402-3 0  9991", "line2": "2 64781  53.1582 152.4773 0001401  72.0893 288.0263 15.34391576 53490"}, {"name": "STARLINK-34482", "line1": "1 64782U 25147AD  26165.26252828  .00024652  00000+0  73844-3 0  9998", "line2": "2 64782  53.1570 153.0270 0001168  69.5603 290.5525 15.34395508 53596"}, {"name": "STARLINK-34629", "line1": "1 64790U 25150A   26165.31811171  .00002243  00000+0  19568-3 0  9994", "line2": "2 64790  70.0003 250.7093 0003511 269.2914  90.7842 14.98334235 50992"}, {"name": "STARLINK-34697", "line1": "1 64791U 25150B   26165.25536025  .00002870  00000+0  24821-3 0  9994", "line2": "2 64791  70.0004 250.8853 0003581 269.2616  90.8133 14.98336352 50980"}, {"name": "STARLINK-34632", "line1": "1 64792U 25150C   26165.28055590  .00002477  00000+0  21526-3 0  9993", "line2": "2 64792  70.0026 250.8534 0002938 280.1899  79.8929 14.98338057 50985"}, {"name": "STARLINK-34693", "line1": "1 64793U 25150D   26164.96764008  .00002404  00000+0  20921-3 0  9997", "line2": "2 64793  70.0008 251.8862 0003360 269.7871  90.2903 14.98334814 50935"}, {"name": "STARLINK-34666", "line1": "1 64794U 25150E   26164.63367662  .00001801  00000+0  15869-3 0  9992", "line2": "2 64794  70.0010 252.7338 0003236 268.7723  91.3066 14.98333195 50881"}, {"name": "STARLINK-34567", "line1": "1 64795U 25150F   26165.24283754  .00003064  00000+0  26442-3 0  9992", "line2": "2 64795  70.0006 250.8439 0003707 270.1632  89.9102 14.98335377 50986"}, {"name": "STARLINK-34646", "line1": "1 64796U 25150G   26165.28474205  .00001968  00000+0  17267-3 0  9996", "line2": "2 64796  70.0006 250.9847 0003407 268.2825  91.7944 14.98334944 51873"}, {"name": "STARLINK-34641", "line1": "1 64797U 25150H   26165.26370404  .00001754  00000+0  15473-3 0  9991", "line2": "2 64797  70.0024 250.9147 0002750 262.3023  97.7823 14.98337119 51815"}, {"name": "STARLINK-34649", "line1": "1 64798U 25150J   26165.28457682  .00002309  00000+0  20125-3 0  9995", "line2": "2 64798  70.0005 250.9911 0003509 270.7775  89.2982 14.98336324 51879"}, {"name": "STARLINK-34662", "line1": "1 64799U 25150K   26165.30976277  .00001966  00000+0  17254-3 0  9992", "line2": "2 64799  70.0006 250.6776 0003359 269.1065  90.9710 14.98332745 50997"}, {"name": "STARLINK-34660", "line1": "1 64800U 25150L   26165.25953316  .00002411  00000+0  20973-3 0  9996", "line2": "2 64800  70.0005 250.9010 0003562 267.3518  92.7234 14.98334770 50982"}, {"name": "STARLINK-34604", "line1": "1 64801U 25150M   26165.27205162  .00015862  00000+0  13324-2 0  9993", "line2": "2 64801  70.0008 250.9430 0003276 268.9832  91.0952 14.98380073 50986"}, {"name": "STARLINK-34658", "line1": "1 64802U 25150N   26164.96331449  .00002758  00000+0  23892-3 0  9999", "line2": "2 64802  70.0010 251.8706 0003521 269.1447  90.9309 14.98318252 50933"}, {"name": "STARLINK-34620", "line1": "1 64803U 25150P   26164.96346571  .00001937  00000+0  17006-3 0  9990", "line2": "2 64803  70.0009 251.8704 0003508 268.9315  91.1442 14.98334188 50933"}, {"name": "STARLINK-34633", "line1": "1 64804U 25150Q   26165.26804562  .00001758  00000+0  15510-3 0  9993", "line2": "2 64804  70.0006 250.9259 0003626 268.0408  92.0335 14.98335183 50983"}, {"name": "STARLINK-34624", "line1": "1 64805U 25150R   26165.28876904 -.00004334  00000+0 -35588-3 0  9997", "line2": "2 64805  70.0010 251.0040 0003297 264.9837  95.0946 14.98307033 50988"}, {"name": "STARLINK-34664", "line1": "1 64806U 25150S   26165.23866675  .00005421  00000+0  46175-3 0  9997", "line2": "2 64806  70.0008 250.8266 0003138 270.0124  90.0676 14.98333908 50989"}, {"name": "STARLINK-34663", "line1": "1 64807U 25150T   26165.27622873  .00002869  00000+0  24811-3 0  9998", "line2": "2 64807  70.0003 250.9601 0003699 267.0695  93.0041 14.98337499 50988"}, {"name": "STARLINK-34696", "line1": "1 64808U 25150U   26165.28040662  .00000751  00000+0  70757-4 0  9999", "line2": "2 64808  70.0013 250.9723 0003178 268.5696  91.5099 14.98329320 50984"}, {"name": "STARLINK-34675", "line1": "1 64809U 25150V   26165.26788046  .00001691  00000+0  14943-3 0  9991", "line2": "2 64809  70.0003 250.9312 0003624 268.1918  91.8826 14.98335535 50983"}, {"name": "STARLINK-34608", "line1": "1 64810U 25150W   26165.31794669  .00002721  00000+0  23574-3 0  9992", "line2": "2 64810  70.0007 250.7044 0003354 269.7262  90.3512 14.98335277 50998"}, {"name": "STARLINK-34669", "line1": "1 64811U 25150X   26165.31377241  .00002604  00000+0  22591-3 0  9994", "line2": "2 64811  70.0005 250.6849 0003512 269.6252  90.4504 14.98334142 50995"}, {"name": "STARLINK-34644", "line1": "1 64812U 25150Y   26165.28891363  .00001599  00000+0  14175-3 0  9998", "line2": "2 64812  70.0008 250.9550 0003394 266.5722  93.5049 14.98333438 50981"}]